[{"OBJECT_NAME":"ONEWEB-0142","OBJECT_ID":"2020-100AG","EPOCH":"2026-03-09T21:29:18.103488","MEAN_MOTION":13.12444745,"ECCENTRICITY":0.00021126,"INCLINATION":87.9002,"RA_OF_ASC_NODE":10.377,"ARG_OF_PERICENTER":72.2117,"MEAN_ANOMALY":287.9241,"EPHEMERIS_TYPE":0,"CLASSIFICATION_TYPE":"U","NORAD_CAT_ID":47288,"ELEMENT_SET_NO":999,"REV_AT_EPOCH":25164,"BSTAR":0.0014343294,"MEAN_MOTION_DOT":5.29e-6,"MEAN_MOTION_DDOT":0},{"OBJECT_NAME":"UNKNOWN","OBJECT_ID":"","EPOCH":"2026-03-05T18:48:55.282752","MEAN_MOTION":13.16435767,"ECCENTRICITY":0.0016249,"INCLINATION":82.4776,"RA_OF_ASC_NODE":189.4112,"ARG_OF_PERICENTER":239.19,"MEAN_ANOMALY":274.5257,"EPHEMERIS_TYPE":0,"CLASSIFICATION_TYPE":"U","NORAD_CAT_ID":82627,"ELEMENT_SET_NO":999,"REV_AT_EPOCH":58975,"BSTAR":0.0017379,"MEAN_MOTION_DOT":6.75e-6,"MEAN_MOTION_DDOT":0}]
